format  = 'OEF2.0'       ! file format
rectype = 'ML'           ! record type (1L/ML)
refsys  = ECLM J2000     ! default reference system
END_OF_HEADER
! Gauss
2015TF202_1
! Keplerian elements: a, e, i, long. node, arg. peric., mean anomaly
 KEP   2.1880304291412958E+00 0.417039555434699   7.1474573697169   8.5042400490126 308.0759518779551  29.2977362409893
 MJD     57306.322312955 TDT
 MAG   0.000  0.000
! Non-grav parameters: model used, actual number in use, dimension
 LSP   0  0    6
! Gauss
2015TF202_2
! Keplerian elements: a, e, i, long. node, arg. peric., mean anomaly
 KEP   2.1610499768554008E+00 0.410411648940173   7.0730562139355   8.4100355208674 308.2600393818825  30.9807867982632
 MJD     57310.347483706 TDT
 MAG   0.000  0.000
! Non-grav parameters: model used, actual number in use, dimension
 LSP   0  0    6
